EROS C3                 
1 54880U 22179A   26192.87576719  .00003203  00000+0  17398-3 0  9994
2 54880 139.3344 145.9335 0006737 156.1499 203.9621 15.11015934196067
