{"fetched_at":"2026-07-12T07:15:35.383Z","source":"https://celestrak.org/NORAD/elements/gp.php?NAME=EROS&FORMAT=JSON","constellation":"eros","records":[{"OBJECT_NAME":"EROS C3","OBJECT_ID":"2022-179A","EPOCH":"2026-07-11T21:01:06.285216","CLASSIFICATION_TYPE":"U","MEAN_MOTION":15.11015934,"ECCENTRICITY":0.00067372,"INCLINATION":139.3344,"RA_OF_ASC_NODE":145.9335,"ARG_OF_PERICENTER":156.1499,"MEAN_ANOMALY":203.9621,"EPHEMERIS_TYPE":0,"NORAD_CAT_ID":54880,"ELEMENT_SET_NO":999,"REV_AT_EPOCH":19606,"BSTAR":0.00017397636,"MEAN_MOTION_DOT":0.00003203,"MEAN_MOTION_DDOT":0}]}
